$$SOE
2461302.500000000, A.D. 2026-Sep-19 00:00:00.0000, 1.862127103570439E+08, 2.183343630584235E+08, -2.372550988780193E+07,
2461309.500000000, A.D. 2026-Sep-26 00:00:00.0000, 1.765510912503859E+08, 2.282225074255702E+08, -2.403703021330291E+07,
2461316.500000000, A.D. 2026-Oct-03 00:00:00.0000, 1.665363684349944E+08, 2.376543503640581E+08, -2.430048631710024E+07,
2461323.500000000, A.D. 2026-Oct-10 00:00:00.0000, 1.561942600051590E+08, 2.466191610620801E+08, -2.451618247148557E+07,
2461330.500000000, A.D. 2026-Oct-17 00:00:00.0000, 1.455505093407834E+08, 2.551078784748299E+08, -2.468454542004582E+07,
2461337.500000000, A.D. 2026-Oct-24 00:00:00.0000, 1.346307642753515E+08, 2.631130540150900E+08, -2.480611512186669E+07,
2461344.500000000, A.D. 2026-Oct-31 00:00:00.0000, 1.234604672637009E+08, 2.706287860526121E+08, -2.488153539533584E+07,
2461351.500000000, A.D. 2026-Nov-07 00:00:00.0000, 1.120647571117455E+08, 2.776506479410799E+08, -2.491154461655696E+07,
2461358.500000000, A.D. 2026-Nov-14 00:00:00.0000, 1.004683824794572E+08, 2.841756120129080E+08, -2.489696653312531E+07,
2461365.500000000, A.D. 2026-Nov-21 00:00:00.0000, 8.869562517045572E+07, 2.902019716442136E+08, -2.483870106750339E+07,
2461372.500000000, A.D. 2026-Nov-28 00:00:00.0000, 7.677023185596320E+07, 2.957292596571434E+08, -2.473771533711225E+07,
2461379.500000000, A.D. 2026-Dec-05 00:00:00.0000, 6.471535736434124E+07, 3.007581635708230E+08, -2.459503533667211E+07,
2461386.500000000, A.D. 2026-Dec-12 00:00:00.0000, 5.255351913126171E+07, 3.052904418468392E+08, -2.441173809421849E+07,
2461393.500000000, A.D. 2026-Dec-19 00:00:00.0000, 4.030656028196075E+07, 3.093288420238361E+08, -2.418894416428486E+07,
2461400.500000000, A.D. 2026-Dec-26 00:00:00.0000, 2.799562051895417E+07, 3.128770206286697E+08, -2.392781054319777E+07,
2461407.500000000, A.D. 2027-Jan-02 00:00:00.0000, 1.564111438510441E+07, 3.159394652967961E+08, -2.362952406490499E+07,
2461414.500000000, A.D. 2027-Jan-09 00:00:00.0000, 3.262716305162533E+06, 3.185214196219144E+08, -2.329529529452282E+07,
2461421.500000000, A.D. 2027-Jan-16 00:00:00.0000, -9.120648265325591E+06, 3.206288111319420E+08, -2.292635292190675E+07,
2461428.500000000, A.D. 2027-Jan-23 00:00:00.0000, -2.149080622388471E+07, 3.222681826389340E+08, -2.252393865526526E+07,
2461435.500000000, A.D. 2027-Jan-30 00:00:00.0000, -3.383033520740771E+07, 3.234466271118320E+08, -2.208930262241961E+07,
2461442.500000000, A.D. 2027-Feb-06 00:00:00.0000, -4.612255717972326E+07, 3.241717265305761E+08, -2.162369927278206E+07,
2461449.500000000, A.D. 2027-Feb-13 00:00:00.0000, -5.835152826550312E+07, 3.244514959965790E+08, -2.112838361755541E+07,
2461456.500000000, A.D. 2027-Feb-20 00:00:00.0000, -7.050202773095711E+07, 3.242943323074161E+08, -2.060460763352095E+07,
2461463.500000000, A.D. 2027-Feb-27 00:00:00.0000, -8.255954520839620E+07, 3.237089637212634E+08, -2.005361719426936E+07,
2461470.500000000, A.D. 2027-Mar-06 00:00:00.0000, -9.451026360722584E+07, 3.227044027451137E+08, -1.947664962229718E+07,
2461477.500000000, A.D. 2027-Mar-13 00:00:00.0000, -1.063410397201535E+08, 3.212899038912607E+08, -1.887493152441956E+07,
2461484.500000000, A.D. 2027-Mar-20 00:00:00.0000, -1.180393840141313E+08, 3.194749254295211E+08, -1.824967685008653E+07,
2461491.500000000, A.D. 2027-Mar-27 00:00:00.0000, -1.295934397270741E+08, 3.172690944286944E+08, -1.760208521065557E+07,
2461498.500000000, A.D. 2027-Apr-03 00:00:00.0000, -1.409919613532690E+08, 3.146821748725459E+08, -1.693334045796569E+07,
2461505.500000000, A.D. 2027-Apr-10 00:00:00.0000, -1.522242927060080E+08, 3.117240386999981E+08, -1.624460950291978E+07,
2461512.500000000, A.D. 2027-Apr-17 00:00:00.0000, -1.632803447519261E+08, 3.084046395782164E+08, -1.553704135535164E+07,
2461519.500000000, A.D. 2027-Apr-24 00:00:00.0000, -1.741505733240903E+08, 3.047339891685619E+08, -1.481176637676868E+07,
2461526.500000000, A.D. 2027-May-01 00:00:00.0000, -1.848259565731051E+08, 3.007221357367466E+08, -1.406989575162107E+07,
2461533.500000000, A.D. 2027-May-08 00:00:00.0000, -1.952979719839093E+08, 2.963791456827053E+08, -1.331252112588814E+07,
2461540.500000000, A.D. 2027-May-15 00:00:00.0000, -2.055585745699722E+08, 2.917150887783622E+08, -1.254071418131144E+07,
2461547.500000000, A.D. 2027-May-22 00:00:00.0000, -2.156001779006386E+08, 2.867400243653095E+08, -1.175552619866757E+07,
2461554.500000000, A.D. 2027-May-29 00:00:00.0000, -2.254156346745498E+08, 2.814639868862225E+08, -1.095798802237795E+07,
2461561.500000000, A.D. 2027-Jun-05 00:00:00.0000, -2.349982160169097E+08, 2.758969737296780E+08, -1.014911023764490E+07,
2461568.500000000, A.D. 2027-Jun-12 00:00:00.0000, -2.443415915601433E+08, 2.700489356868160E+08, -9.329883329650894E+06,
2461575.500000000, A.D. 2027-Jun-19 00:00:00.0000, -2.534398106730263E+08, 2.639297689582406E+08, -8.501277860159546E+06,
2461582.500000000, A.D. 2027-Jun-26 00:00:00.0000, -2.622872845826831E+08, 2.575493083275021E+08, -7.664244698149204E+06,
2461589.500000000, A.D. 2027-Jul-03 00:00:00.0000, -2.708787692741742E+08, 2.509173213952651E+08, -6.819715306615472E+06,
2461596.500000000, A.D. 2027-Jul-10 00:00:00.0000, -2.792093491410459E+08, 2.440435037773554E+08, -5.968602079907998E+06,
2461603.500000000, A.D. 2027-Jul-17 00:00:00.0000, -2.872744213548265E+08, 2.369374751304422E+08, -5.111798730667904E+06,
2461610.500000000, A.D. 2027-Jul-24 00:00:00.0000, -2.950696807963040E+08, 2.296087758529606E+08, -4.250180739179835E+06,
2461617.500000000, A.D. 2027-Jul-31 00:00:00.0000, -3.025911051318310E+08, 2.220668646145917E+08, -3.384605877647996E+06,
2461624.500000000, A.D. 2027-Aug-07 00:00:00.0000, -3.098349402261683E+08, 2.143211177906793E+08, -2.515914691551208E+06,
2461631.500000000, A.D. 2027-Aug-14 00:00:00.0000, -3.167976881812494E+08, 2.063808304803672E+08, -1.644930743187875E+06,
2461638.500000000, A.D. 2027-Aug-21 00:00:00.0000, -3.234760973650486E+08, 1.982552156834593E+08, -7.724609448714256E+05,
2461645.500000000, A.D. 2027-Aug-28 00:00:00.0000, -3.298671509731922E+08, 1.899534027767197E+08, 1.007038065168262E+05,
2461652.500000000, A.D. 2027-Sep-04 00:00:00.0000, -3.359680552843838E+08, 1.814844377279801E+08, 9.737880101426244E+05,
2461659.500000000, A.D. 2027-Sep-11 00:00:00.0000, -3.417762289949827E+08, 1.728572843345027E+08, 1.846031032858849E+06,
2461666.500000000, A.D. 2027-Sep-18 00:00:00.0000, -3.472892934884410E+08, 1.640808257942979E+08, 2.716686608007848E+06,
2461673.500000000, A.D. 2027-Sep-25 00:00:00.0000, -3.525050637956406E+08, 1.551638664971277E+08, 3.585022335580826E+06,
2461680.500000000, A.D. 2027-Oct-02 00:00:00.0000, -3.574215401530376E+08, 1.461151340302891E+08, 4.450319180603892E+06,
2461687.500000000, A.D. 2027-Oct-09 00:00:00.0000, -3.620369001164044E+08, 1.369432813641183E+08, 5.311870968758874E+06,
2461694.500000000, A.D. 2027-Oct-16 00:00:00.0000, -3.663494911469913E+08, 1.276568891333982E+08, 6.168983870275855E+06,
2461701.500000000, A.D. 2027-Oct-23 00:00:00.0000, -3.703578233908203E+08, 1.182644679820157E+08, 7.020975848946042E+06,
2461708.500000000, A.D. 2027-Oct-30 00:00:00.0000, -3.740605622577735E+08, 1.087744615563278E+08, 7.867176092751086E+06,
2461715.500000000, A.D. 2027-Nov-06 00:00:00.0000, -3.774565219468368E+08, 9.919525125227532E+07, 8.706924625781812E+06,
2461722.500000000, A.D. 2027-Nov-13 00:00:00.0000, -3.805446618895816E+08, 8.953516061970200E+07, 9.539572114379138E+06,
2461729.500000000, A.D. 2027-Nov-20 00:00:00.0000, -3.833240831974163E+08, 7.980245722254869E+07, 1.036447942333297E+07,
2461736.500000000, A.D. 2027-Nov-27 00:00:00.0000, -3.857940234772739E+08, 7.000535490472166E+07, 1.118101701696163E+07,
2461743.500000000, A.D. 2027-Dec-04 00:00:00.0000, -3.879538520233085E+08, 6.015201735821831E+07, 1.198856446590029E+07,
2461750.500000000, A.D. 2027-Dec-11 00:00:00.0000, -3.898030659256081E+08, 5.025056201477487E+07, 1.278651003152030E+07,
2461757.500000000, A.D. 2027-Dec-18 00:00:00.0000, -3.913412868120505E+08, 4.030906391108568E+07, 1.357425027543311E+07,
2461764.500000000, A.D. 2027-Dec-25 00:00:00.0000, -3.925682580612054E+08, 3.033555951549461E+07, 1.435118968047791E+07,
2461771.500000000, A.D. 2028-Jan-01 00:00:00.0000, -3.934838424352422E+08, 2.033805052087229E+07, 1.511674028107737E+07,
$$EOE